HADES-R (SO-124)
1 62690U 25009CK  25337.77000382  .00192270  00000-0  27852-2 0  9993
2 62690  97.3903  60.0683 0001798 221.3582 138.7536 15.55198642 49380
OTP-2
1 63235U 25052AB  25337.69403420  .00008717  00000-0  39697-3 0  9991
2 63235  97.4075 228.1909 0008135 119.3804 240.8245 15.20891974 40125
HADES-ICM (SO-125)
1 63492U 25052BN  25337.65694532  .00078831  00000-0  20997-2 0  9994
2 63492  97.4086 231.0739 0011523  98.1793 262.0760 15.37824900 40303
IONOSFERA-M 03
1 64876U 25155A   25338.19569102  .00000176  00000-0  10017-3 0  9999
2 64876  98.5771 300.3042 0002387  73.4083 286.7357 14.21437783 18701
IONOSFERA-M 04
1 64877U 25155B   25338.16037228  .00000180  00000-0  10198-3 0  9991
2 64877  98.5769 300.1895 0001740  72.2579 287.8788 14.21438822 18695
INNOSAT16 (RS92S7)
1 64878U 25155C   25337.81417274  .00007175  00000-0  31083-3 0  9993
2 64878  97.4316 301.2832 0012103 144.8131 215.3907 15.22632931 50919
GEOSCAN-6 (RS92S6)
1 64879U 25155D   25337.88503322  .00018719  00000-0  74597-3 0  9994
2 64879  97.4319 301.6647 0009779 136.0761 224.1256 15.25219573 50942
GEOSCAN 1 (RS92S1)
1 64880U 25155E   25337.81065714  .00019341  00000-0  76534-3 0  9992
2 64880  97.4321 301.6167 0009687 136.5462 223.6541 15.25449878 50938
239ALFEROV (RS61S)
1 64881U 25155F   25337.90809868  .00027905  00000-0  10754-2 0  9995
2 64881  97.4331 301.8113 0009448 135.1983 225.0019 15.26259693 50954
ASTROLINE-N1
1 64882U 25155G   25337.81553682  .00014926  00000-0  59805-3 0  9996
2 64882  97.4340 301.6251 0009108 136.3018 223.8942 15.25094277 50934
ASTROLINE-N2
1 64883U 25155H   25337.81584753  .00016179  00000-0  64702-3 0  9994
2 64883  97.4335 301.6175 0009272 135.1340 225.0648 15.25138547 50937
ASTROLINE-N3
1 64884U 25155J   25338.14284603  .00020917  00000-0  83196-3 0  9996
2 64884  97.4329 301.9537 0010446 130.5950 229.6199 15.25254439 50982
ASTROLINE-N4
1 64885U 25155K   25338.13338529  .00042302  00000-0  15085-2 0  9996
2 64885  97.4286 302.1960 0009820 123.9937 236.2237 15.28726570 51007
CSTP-4.3
1 64886U 25155L   25338.13062257  .00053540  00000-0  18949-2 0  9997
2 64886  97.4275 302.1933 0009963 124.6515 235.5665 15.28910940 51007
CSTP-4.2
1 64887U 25155M   25338.09956775  .00041103  00000-0  15000-2 0  9997
2 64887  97.4301 302.1164 0009924 123.9743 236.2441 15.27973230 50993
CSTP-4.1
1 64888U 25155N   25338.12697025  .00050296  00000-0  17750-2 0  9999
2 64888  97.4282 302.2114 0009858 121.9141 238.3059 15.29022367 51003
CSTP-4.4
1 64889U 25155P   25338.17755556  .00011813  00000-0  48962-3 0  9991
2 64889  97.4345 301.9121 0008845 133.2296 226.9681 15.24012814 50981
GEOSCAN 2 (RS92S2)
1 64890U 25155Q   25338.10510110  .00023451  00000-0  91698-3 0  9996
2 64890  97.4320 301.9758 0009414 123.8500 236.3635 15.25810664 50982
GEOSCAN-5 (RS92S5)
1 64891U 25155R   25338.13674252  .00028567  00000-0  10887-2 0  9991
2 64891  97.4324 302.0956 0008018 138.6077 221.5771 15.26636516 50992
GEOSCAN-4 (RS92S4)
1 64892U 25155S   25338.13422345  .00031598  00000-0  12010-2 0  9994
2 64892  97.4326 302.1021 0008021 139.2067 220.9773 15.26703771 50992
GEOSCAN-3 (RS92S3)
1 64893U 25155T   25338.17355694  .00037530  00000-0  13964-2 0  9992
2 64893  97.4324 302.1969 0007794 139.6522 220.5297 15.27373223 51004
INNOSAT3 (RS92S0)
1 64894U 25155U   25338.16460804  .00052778  00000-0  18298-2 0  9998
2 64894  97.4308 302.3522 0007481 136.9746 223.2080 15.29609845 51010
NAHID-2
1 64895U 25155V   25338.14353179  .00018785  00000-0  75132-3 0  9994
2 64895  97.4337 301.9438 0008941 134.5491 225.6479 15.25105031 50973
RSP-03
1 65732U 98067XL  25337.81203793  .00135578  00000-0  12909-2 0  9998
2 65732  51.6261 181.9259 0006687 196.3432 163.7349 15.65846049 11762
YOTSUBA-KULOVER
1 65941U 98067XN  25337.54415300  .00081930  00000-0  10742-2 0  9994
2 65941  51.6280 186.1413 0002089 172.2888 187.8136 15.57842234  8427
BOTAN
1 65942U 98067XP  25337.75958221  .00114481  00000-0  13485-2 0  9997
2 65942  51.6281 184.5795 0004244 175.2259 184.8775 15.60510623  8462
E-KAGAKU-1
1 65943U 98067XQ  25336.90248775  .00073283  00000-0  96702-3 0  9998
2 65943  51.6296 189.3580 0003520 147.4331 212.6879 15.57714998  8329
